STARLINK-36814
1 67904U 26036A   26061.16668981 -.01511300  00000+0 -63786-2 0  9997
2 67904  42.9953 295.9517 0001721 274.9825 247.3372 15.87034420  2437
